"Organization","County","Program","lastUpdated","Mon","Tue","Wed","Thu","Fri","Sat","Sun","Address1","Address2","City","Zip","website","Phone","Description","Notes","Serves","AddressLine","lon","lat","geoAddress"
"Family Justice Center","Guilford","Family Justice Center",NA,"8:30 - 4:30 pm","8:30- 4:30 pm","8:30 - 4:30 pm","8:30-4:30 pm","8:30 - 4:30 pm","Closed","Closed","505 E Green St",NA,"HIgh Point",27260,"https://www.guilfordcountync.gov/our-county/family-justice-center","(336) 641-2889","A “one stop shop” for victims of domestic violence, sexual assault, child abuse, and elder abuse. At the Centers, victims can come to one location to access a wide range of supportive resources, such as talking with a victim advocate, getting assistance with filing a restraining order, planning for their safety, talking to a law enforcement officer, meeting with a professional to discuss civil and criminal legal issues, receiving medical assistance, and gaining information on how to access shelter and other community resources.",NA,NA,"505 E Green St HIgh Point, NC",-79.9985418,35.9546024,"505 e green dr, high point, nc 27260, usa"
"Family Justice Center","Guilford","Family Justice Center",NA,"8:30- 4:30 pm","8:30 - 4:30 pm","8:30 - 4:30 pm","8:30 - 4:30 pm","8:30 - 4:30 pm","Closed","Closed","201 S Green St 2nd floor",NA,"Greensboro",27401,"https://www.guilfordcountync.gov/our-county/family-justice-center","(336)641-2339",NA,NA,NA,"201 S Green St 2nd floor Greensboro, NC",-79.7911528,36.0712427,"201 s greene st 2nd floor, greensboro, nc 27401, usa"
"Family services of the piedmont","Guilford","The Families First Center",NA,"Closed","Closed","Closed","Closed","Closed","Closed","Closed","315 E. Washington Street",NA,"Greensboro",27401,"fspcares.org","(336) 387-6161","Domestic Violence, Substance Abuse, Mental Health, and Sexual Assault services, Child Abuse, Healthy Parenting – in home therapy, Incredible Years, Financial Counseling, childen’s advocacy center, emergency shelters","24 hr crisis line GSO 336-273-7273 HP 336-889-7273",NA,"315 E. Washington Street Greensboro, NC",-79.7855386,36.0702241,"315 e washington st, greensboro, nc 27401, usa"
"Family services of the piedmont","Guilford","The Slane Center",NA,"Closed","Closed","Closed","Closed","Closed","Closed","Closed","1401 Long Street",NA,"High Point",27262,"fspcares.org","(336) 387-6161",NA,NA,NA,"1401 Long Street High Point, NC",-80.0205175,35.9751739,"1401 long st, high point, nc 27262, usa"
"Family services of the piedmont","Guilford","Fairview Resource Center",NA,"Closed","Closed","Closed","Closed","Closed","Closed","Closed","401 Taylor Ave",NA,"High Point",27261,"fspcares.org","(336)882-8907",NA,NA,NA,"401 Taylor Ave High Point, NC",-80.0085999,35.9477673,"401 taylor ave, high point, nc 27260, usa"
"Family services of the piedmont","Guilford","Administrative offices",NA,"Closed","Closed","Closed","Closed","Closed","Closed","Closed","902 Bonner Drive",NA,"Jamestown",27282,"fspcares.org","(336) 387-6161",NA,NA,NA,"902 Bonner Drive Jamestown, NC",-79.9218,35.9960372,"902 bonner dr, jamestown, nc 27282, usa"
"Greensboro Housing Coalition","Guilford","Greensboro Housing Coalition",NA,"Closed","Closed","Closed","Closed","Closed","Closed","Closed","1031 Summit Avenue, Suite 1E-2",NA,"Greenb",27405,"https://www.greensborohousingcoalition.org/","336-691-9521","Homeless prevention - free housing counseling assistance in locating affordable rental housing or housing with support services for families and individuals in crisis and the chronically homeless. We provide potential resources for other housing needs like utilities. Our trained counselors also work with clients on budgeting and financial literacy in effort to empower them to take control of their financial situations. Greensboro Housing Coalition collaborates with homeless service providers and other stakeholders as part of the Guilford County CoC (Continuum of Care). The (CoC) is a regional/local planning body that coordinates housing and services funding for homeless families and individuals. The role of GHC in the CoC is through housing counseling to work with people we serve on diversion strategies for those that are at imminent risk of becoming homeless. We also work with the Coordinated Assessment/Entry Specialist who attempts to find temporary solutions and/or connects the people to Housing First, Rapid Re-housing or transitional housing programs.  Forclosure prevention - free counseling for homeowners in danger of losing their home to foreclosure. Our HUD certified Housing Counselors meet with clients to determine their individual needs and what programs they may qualify for. We then work with them to find the best fit in an attempt to resolve their housing crisis.  Healthy Homes - provide assistance to residents who live in homes with health and safety hazards through education, referrals, and landlord tenant advocacy.","Homeless/Rental Housing Counseling will not be taking walk-in clients. Call 336-691-9521 to talk to staff.  Dependent upon needs, housing counseling will be done by phone, email, or snail mail. Leave a message with contact information and reason for calling. Will return call ASAP to talk through situation and set up a phone appointment with a counselor.",NA,"1031 Summit Avenue, Suite 1E-2 Greenb, NC",-79.7762675,36.0870235,"1031 summit ave suite 1e-2, greensboro, nc 27405, usa"
"Greensboro Urban Ministry","Guilford","Food Pantry",NA,"9:30am - 3:30pm","9:30am - 3:30pm","9:30am - 3:30pm","9:30am - 3:30pm","9:30am - 3:30pm","Closed","Closed","305 W. Gate City Blvd",NA,"Greensboro",27406,"https://greensborourbanministry.org/",NA,NA,"Note on EVICTIONS: Eviction hearings will be postponed (“continued” in legal language) for 30 days across the state, per orders from Chief Justice.",NA,"305 W. Gate City Blvd Greensboro, NC",-79.7943626,36.0640226,"305 w gate city blvd, greensboro, nc 27406, usa"
"Greensboro Urban Ministry","Guilford","Potter's House Community Kitchen",NA,"10:30am-12:30pm","Closed","Closed","Closed","Closed","Closed","Closed","306 W. Gate City Blvd",NA,"Greensboro",27406,"https://greensborourbanministry.org/",NA,NA,"Potter’s House Community Kitchen will serve lunch TO-GO only effective Monday, March 16th. We will continue our regular lunch hours of 10:30 am – 12:30 pm. The breakfast meal will also be served to-go starting Wednesday, March 18th.",NA,"306 W. Gate City Blvd Greensboro, NC",-79.7943059,36.0651183,"306 w gate city blvd, greensboro, nc 27406, usa"
"High Point Food Alliance","Guilford","High Point Food Alliance",NA,"Closed","Closed","Closed","Closed","Closed","Closed","Closed","815 Phillips Avenue",NA,"High Point",NA,"https://findfood.ghpfa.org/",NA,"Resources for finding food",NA,NA,"815 Phillips Avenue High Point, NC",-80.0289092,35.9510244,"815 phillips ave, high point, nc 27262, usa"
"Interactive Resource Center","Guilford","Interactive Resource Center",NA,"8:00-3:00 pm","8:00-3:00 pm","8:00-3:00 pm","8:00-3:00 pm","8:00-3:00 pm","Closed","Closed","407 E Washington Street",NA,"Greensboro",27240,"http://interactiveresourcecenter.org/","336-332-0824","Case management, Medical Clinic, Mental Health Nurse, Referrals, and PATH street outreach. They offer showers, hygiene supplies, laundry, replacement ID's, phone access, mailing address, on site barber shop, storage lockers, white flag warming center, classes for, resume and job application assistance, GED classes, interview training, professional clothing vouchers, financial literacy",NA,NA,"407 E Washington Street Greensboro, NC",-79.7842291,36.0703791,"407 e washington st, greensboro, nc 27401, usa"
"Out of the Garden Project","Guilford","Hot Meals and Food Pantry",NA,"11:00am-12:00pm","Closed","11:00am-12:00pm","Closed","11:00am-12:00pm","Closed","Closed","1806 Merrit Drive",NA,"Greensboro",27407,"https://outofthegardenproject.org/",NA,"PATH Street Outreach","Hot meals Monday Wednesday and Fridays from 11am to noon for families with school age children at Daystar Community Center 1806 Merritt Drive. You will receive some shelf stable items as well. (3/17)",NA,"1806 Merrit Drive Greensboro, NC",-79.8567503,36.0489888,"1806 merritt dr, greensboro, nc 27407, usa"
"Guilford County Schools","Guilford","Grab & Go Meals - Alderman Elementary",NA,"11:00am-12:00pm","11:00am-12:00pm","11:00am-12:00pm","11:00am-12:00pm","11:00am-12:00pm","Closed","Closed","4211 Chateau Drive",NA,"Greensboro",NA,"https://www.gcsnc.com/",NA,"Medical clinic","Food distribution for any children ages 0 – 18
Grab-and-go and Satellite food sites are open from 11 a.m. to 12 p.m. Monday through Friday.
This does not include formula for infants
Food is also delivered by bus to “students that are most vulnerable and need it most.” I.e. homeless students or those in temporary housing.
GUILFORD COUNTY SCHOOLS FOOD HOTLINE: 336.332.7290 (24 hour hotline)",NA,"4211 Chateau Drive Greensboro, NC",-79.8679836,36.0402338,"4211 chateau dr, greensboro, nc 27407, usa"
"Guilford County Schools","Guilford","Grab & Go Meals - Allen Jay Middle",NA,"11:00am-12:00pm","11:00am-12:00pm","11:00am-12:00pm","11:00am-12:00pm","11:00am-12:00pm","Closed","Closed","1201 E. Fairfield Road",NA,"High Point",NA,"https://www.gcsnc.com/",NA,"Mental health nurse","Food distribution for any children ages 0 – 18
Grab-and-go and Satellite food sites are open from 11 a.m. to 12 p.m. Monday through Friday.
This does not include formula for infants
Food is also delivered by bus to “students that are most vulnerable and need it most.” I.e. homeless students or those in temporary housing.
GUILFORD COUNTY SCHOOLS FOOD HOTLINE: 336.332.7290 (24 hour hotline)",NA,"1201 E. Fairfield Road High Point, NC",-79.9619333,35.9253078,"1201 e fairfield rd, high point, nc 27263, usa"
"Guilford County Schools","Guilford","Grab & Go Meals - Archer Elementary",NA,"11:00am-12:00pm","11:00am-12:00pm","11:00am-12:00pm","11:00am-12:00pm","11:00am-12:00pm","Closed","Closed","2610 Four Seasons Blvd.",NA,"Greensboro",NA,"https://www.gcsnc.com/",NA,"Referrals","Food distribution for any children ages 0 – 18
Grab-and-go and Satellite food sites are open from 11 a.m. to 12 p.m. Monday through Friday.
This does not include formula for infants
Food is also delivered by bus to “students that are most vulnerable and need it most.” I.e. homeless students or those in temporary housing.
GUILFORD COUNTY SCHOOLS FOOD HOTLINE: 336.332.7290 (24 hour hotline)",NA,"2610 Four Seasons Blvd. Greensboro, NC",-79.830431,36.031075,"2610 four seasons blvd, greensboro, nc 27407, usa"
"Guilford County Schools","Guilford","Grab & Go Meals - Bluford Elementary",NA,"11:00am-12:00pm","11:00am-12:00pm","11:00am-12:00pm","11:00am-12:00pm","11:00am-12:00pm","Closed","Closed","1901 Tuscaloosa Street",NA,"Greensboro",NA,"https://www.gcsnc.com/",NA,NA,"Food distribution for any children ages 0 – 18
Grab-and-go and Satellite food sites are open from 11 a.m. to 12 p.m. Monday through Friday.
This does not include formula for infants
Food is also delivered by bus to “students that are most vulnerable and need it most.” I.e. homeless students or those in temporary housing.
GUILFORD COUNTY SCHOOLS FOOD HOTLINE: 336.332.7290 (24 hour hotline)",NA,"1901 Tuscaloosa Street Greensboro, NC",-79.7646078,36.0577655,"1901 tuscaloosa st, greensboro, nc 27401, usa"
"Guilford County Schools","Guilford","Grab & Go Meals - Cone Elementary",NA,"11:00am-12:00pm","11:00am-12:00pm","11:00am-12:00pm","11:00am-12:00pm","11:00am-12:00pm","Closed","Closed","2501 N. Church Street",NA,"Greensboro",NA,"https://www.gcsnc.com/",NA,NA,"Food distribution for any children ages 0 – 18
Grab-and-go and Satellite food sites are open from 11 a.m. to 12 p.m. Monday through Friday.
This does not include formula for infants
Food is also delivered by bus to “students that are most vulnerable and need it most.” I.e. homeless students or those in temporary housing.
GUILFORD COUNTY SCHOOLS FOOD HOTLINE: 336.332.7290 (24 hour hotline)",NA,"2501 N. Church Street Greensboro, NC",-79.7813281,36.1080744,"2501 n church st, greensboro, nc 27405, usa"
"Guilford County Schools","Guilford","Grab & Go Meals - Dudley High",NA,"11:00am-12:00pm","11:00am-12:00pm","11:00am-12:00pm","11:00am-12:00pm","11:00am-12:00pm","Closed","Closed","1200 Lincoln Street",NA,"Greensboro",NA,"https://www.gcsnc.com/",NA,NA,"Food distribution for any children ages 0 – 18
Grab-and-go and Satellite food sites are open from 11 a.m. to 12 p.m. Monday through Friday.
This does not include formula for infants
Food is also delivered by bus to “students that are most vulnerable and need it most.” I.e. homeless students or those in temporary housing.
GUILFORD COUNTY SCHOOLS FOOD HOTLINE: 336.332.7290 (24 hour hotline)",NA,"1200 Lincoln Street Greensboro, NC",-79.762302,36.06138,"1200 lincoln st, greensboro, nc 27401, usa"
"Guilford County Schools","Guilford","Grab & Go Meals - Eastern High",NA,"11:00am-12:00pm","11:00am-12:00pm","11:00am-12:00pm","11:00am-12:00pm","11:00am-12:00pm","Closed","Closed","415 Peeden Drive",NA,"Gibsonville",NA,"https://www.gcsnc.com/",NA,NA,"Food distribution for any children ages 0 – 18
Grab-and-go and Satellite food sites are open from 11 a.m. to 12 p.m. Monday through Friday.
This does not include formula for infants
Food is also delivered by bus to “students that are most vulnerable and need it most.” I.e. homeless students or those in temporary housing.
GUILFORD COUNTY SCHOOLS FOOD HOTLINE: 336.332.7290 (24 hour hotline)",NA,"415 Peeden Drive Gibsonville, NC",-79.615576,36.0946279,"415 peeden dr, gibsonville, nc 27249, usa"
"Guilford County Schools","Guilford","Grab & Go Meals - Fairview Elementary",NA,"11:00am-12:00pm","11:00am-12:00pm","11:00am-12:00pm","11:00am-12:00pm","11:00am-12:00pm","Closed","Closed","608 Fairview Street",NA,"High Point",NA,"https://www.gcsnc.com/",NA,NA,"Food distribution for any children ages 0 – 18
Grab-and-go and Satellite food sites are open from 11 a.m. to 12 p.m. Monday through Friday.
This does not include formula for infants
Food is also delivered by bus to “students that are most vulnerable and need it most.” I.e. homeless students or those in temporary housing.
GUILFORD COUNTY SCHOOLS FOOD HOTLINE: 336.332.7290 (24 hour hotline)",NA,"608 Fairview Street High Point, NC",-80.0074642,35.947588,"608 fairview st, high point, nc 27260, usa"
"Guilford County Schools","Guilford","Grab & Go Meals - Foust Elementary",NA,"11:00am-12:00pm","11:00am-12:00pm","11:00am-12:00pm","11:00am-12:00pm","11:00am-12:00pm","Closed","Closed","2610 Floyd Street",NA,"Greensboro",NA,"https://www.gcsnc.com/",NA,NA,"Food distribution for any children ages 0 – 18
Grab-and-go and Satellite food sites are open from 11 a.m. to 12 p.m. Monday through Friday.
This does not include formula for infants
Food is also delivered by bus to “students that are most vulnerable and need it most.” I.e. homeless students or those in temporary housing.
GUILFORD COUNTY SCHOOLS FOOD HOTLINE: 336.332.7290 (24 hour hotline)",NA,"2610 Floyd Street Greensboro, NC",-79.8092312,36.0372463,"2610 floyd st, greensboro, nc 27406, usa"
"Guilford County Schools","Guilford","Grab & Go Meals - Hairston Middle",NA,"11:00am-12:00pm","11:00am-12:00pm","11:00am-12:00pm","11:00am-12:00pm","11:00am-12:00pm","Closed","Closed","3911 Naco Road",NA,"Greensboro",NA,"https://www.gcsnc.com/",NA,NA,"Food distribution for any children ages 0 – 18
Grab-and-go and Satellite food sites are open from 11 a.m. to 12 p.m. Monday through Friday.
This does not include formula for infants
Food is also delivered by bus to “students that are most vulnerable and need it most.” I.e. homeless students or those in temporary housing.
GUILFORD COUNTY SCHOOLS FOOD HOTLINE: 336.332.7290 (24 hour hotline)",NA,"3911 Naco Road Greensboro, NC",-79.7384171,36.0814709,"3911 naco rd, greensboro, nc 27401, usa"
"Guilford County Schools","Guilford","Grab & Go Meals - High Point Central High",NA,"11:00am-12:00pm","11:00am-12:00pm","11:00am-12:00pm","11:00am-12:00pm","11:00am-12:00pm","Closed","Closed","801 Ferndale Blvd.",NA,"High Point",NA,"https://www.gcsnc.com/",NA,NA,"Food distribution for any children ages 0 – 18
Grab-and-go and Satellite food sites are open from 11 a.m. to 12 p.m. Monday through Friday.
This does not include formula for infants
Food is also delivered by bus to “students that are most vulnerable and need it most.” I.e. homeless students or those in temporary housing.
GUILFORD COUNTY SCHOOLS FOOD HOTLINE: 336.332.7290 (24 hour hotline)",NA,"801 Ferndale Blvd. High Point, NC",-80.0211513,35.9569038,"801 ferndale blvd, high point, nc 27262, usa"
"Guilford County Schools","Guilford","Grab & Go Meals - Hunter Elementary",NA,"11:00am-12:00pm","11:00am-12:00pm","11:00am-12:00pm","11:00am-12:00pm","11:00am-12:00pm","Closed","Closed","1305 Merritt Drive",NA,"Greensboro",NA,"https://www.gcsnc.com/",NA,NA,"Food distribution for any children ages 0 – 18
Grab-and-go and Satellite food sites are open from 11 a.m. to 12 p.m. Monday through Friday.
This does not include formula for infants
Food is also delivered by bus to “students that are most vulnerable and need it most.” I.e. homeless students or those in temporary housing.
GUILFORD COUNTY SCHOOLS FOOD HOTLINE: 336.332.7290 (24 hour hotline)",NA,"1305 Merritt Drive Greensboro, NC",-79.851826,36.051857,"1305 merritt dr, greensboro, nc 27407, usa"
"Guilford County Schools","Guilford","Grab & Go Meals - Irving Park Elementary",NA,"11:00am-12:00pm","11:00am-12:00pm","11:00am-12:00pm","11:00am-12:00pm","11:00am-12:00pm","Closed","Closed","1310 Sunset Drive",NA,"Greensboro",NA,"https://www.gcsnc.com/",NA,NA,"Food distribution for any children ages 0 – 18
Grab-and-go and Satellite food sites are open from 11 a.m. to 12 p.m. Monday through Friday.
This does not include formula for infants
Food is also delivered by bus to “students that are most vulnerable and need it most.” I.e. homeless students or those in temporary housing.
GUILFORD COUNTY SCHOOLS FOOD HOTLINE: 336.332.7290 (24 hour hotline)",NA,"1310 Sunset Drive Greensboro, NC",-79.8135216,36.0966334,"1310 sunset dr, greensboro, nc 27408, usa"
"Guilford County Schools","Guilford","Grab & Go Meals - Jackson Middle",NA,"11:00am-12:00pm","11:00am-12:00pm","11:00am-12:00pm","11:00am-12:00pm","11:00am-12:00pm","Closed","Closed","2200 Ontario Street",NA,"Greensboro",NA,"https://www.gcsnc.com/",NA,NA,"Food distribution for any children ages 0 – 18
Grab-and-go and Satellite food sites are open from 11 a.m. to 12 p.m. Monday through Friday.
This does not include formula for infants
Food is also delivered by bus to “students that are most vulnerable and need it most.” I.e. homeless students or those in temporary housing.
GUILFORD COUNTY SCHOOLS FOOD HOTLINE: 336.332.7290 (24 hour hotline)",NA,"2200 Ontario Street Greensboro, NC",-79.8275254,36.0479436,"2200 ontario st, greensboro, nc 27403, usa"
"Guilford County Schools","Guilford","Grab & Go Meals - Jamestown Elementary",NA,"11:00am-12:00pm","11:00am-12:00pm","11:00am-12:00pm","11:00am-12:00pm","11:00am-12:00pm","Closed","Closed","108 Potter Drive",NA,"Jamestown",NA,"https://www.gcsnc.com/",NA,NA,"Food distribution for any children ages 0 – 18
Grab-and-go and Satellite food sites are open from 11 a.m. to 12 p.m. Monday through Friday.
This does not include formula for infants
Food is also delivered by bus to “students that are most vulnerable and need it most.” I.e. homeless students or those in temporary housing.
GUILFORD COUNTY SCHOOLS FOOD HOTLINE: 336.332.7290 (24 hour hotline)",NA,"108 Potter Drive Jamestown, NC",-79.9403911,35.9935931,"108 potter dr, jamestown, nc 27282, usa"
"Guilford County Schools","Guilford","Grab & Go Meals - Johnson Street Global",NA,"11:00am-12:00pm","11:00am-12:00pm","11:00am-12:00pm","11:00am-12:00pm","11:00am-12:00pm","Closed","Closed","1601 Johnson Street",NA,"High Point",NA,"https://www.gcsnc.com/",NA,NA,"Food distribution for any children ages 0 – 18
Grab-and-go and Satellite food sites are open from 11 a.m. to 12 p.m. Monday through Friday.
This does not include formula for infants
Food is also delivered by bus to “students that are most vulnerable and need it most.” I.e. homeless students or those in temporary housing.
GUILFORD COUNTY SCHOOLS FOOD HOTLINE: 336.332.7290 (24 hour hotline)",NA,"1601 Johnson Street High Point, NC",-80.0175169,35.9780285,"1601 johnson st, high point, nc 27262, usa"
"Guilford County Schools","Guilford","Grab & Go Meals - Jones Elementary",NA,"11:00am-12:00pm","11:00am-12:00pm","11:00am-12:00pm","11:00am-12:00pm","11:00am-12:00pm","Closed","Closed","502 South Street",NA,"Greensboro",NA,"https://www.gcsnc.com/",NA,NA,"Food distribution for any children ages 0 – 18
Grab-and-go and Satellite food sites are open from 11 a.m. to 12 p.m. Monday through Friday.
This does not include formula for infants
Food is also delivered by bus to “students that are most vulnerable and need it most.” I.e. homeless students or those in temporary housing.
GUILFORD COUNTY SCHOOLS FOOD HOTLINE: 336.332.7290 (24 hour hotline)",NA,"502 South Street Greensboro, NC",-79.7978914,36.0555757,"502 south st, greensboro, nc 27406, usa"
"Guilford County Schools","Guilford","Grab & Go Meals - Kirkman Park Elementary",NA,"11:00am-12:00pm","11:00am-12:00pm","11:00am-12:00pm","11:00am-12:00pm","11:00am-12:00pm","Closed","Closed","1101 N. Centennial Street",NA,"High Point",NA,"https://www.gcsnc.com/",NA,NA,"Food distribution for any children ages 0 – 18
Grab-and-go and Satellite food sites are open from 11 a.m. to 12 p.m. Monday through Friday.
This does not include formula for infants
Food is also delivered by bus to “students that are most vulnerable and need it most.” I.e. homeless students or those in temporary housing.
GUILFORD COUNTY SCHOOLS FOOD HOTLINE: 336.332.7290 (24 hour hotline)",NA,"1101 N. Centennial Street High Point, NC",-80.003043,35.973671,"1101 n centennial st, high point, nc 27262, usa"
"Guilford County Schools","Guilford","Grab & Go Meals - Montlieu Elementary",NA,"11:00am-12:00pm","11:00am-12:00pm","11:00am-12:00pm","11:00am-12:00pm","11:00am-12:00pm","Closed","Closed","1105 Montlieu Avenue",NA,"High Point",NA,"https://www.gcsnc.com/",NA,NA,"Food distribution for any children ages 0 – 18
Grab-and-go and Satellite food sites are open from 11 a.m. to 12 p.m. Monday through Friday.
This does not include formula for infants
Food is also delivered by bus to “students that are most vulnerable and need it most.” I.e. homeless students or those in temporary housing.
GUILFORD COUNTY SCHOOLS FOOD HOTLINE: 336.332.7290 (24 hour hotline)",NA,"1105 Montlieu Avenue High Point, NC",-79.9852139,35.9766361,"1105 montlieu ave, high point, nc 27262, usa"
"Guilford County Schools","Guilford","Grab & Go Meals - Morehead Elementary",NA,"11:00am-12:00pm","11:00am-12:00pm","11:00am-12:00pm","11:00am-12:00pm","11:00am-12:00pm","Closed","Closed","4630 Tower Road",NA,"Greensboro",NA,"https://www.gcsnc.com/",NA,NA,"Food distribution for any children ages 0 – 18
Grab-and-go and Satellite food sites are open from 11 a.m. to 12 p.m. Monday through Friday.
This does not include formula for infants
Food is also delivered by bus to “students that are most vulnerable and need it most.” I.e. homeless students or those in temporary housing.
GUILFORD COUNTY SCHOOLS FOOD HOTLINE: 336.332.7290 (24 hour hotline)",NA,"4630 Tower Road Greensboro, NC",-79.8667982,36.0802289,"4630 tower rd, greensboro, nc 27410, usa"
"Guilford County Schools","Guilford","Grab & Go Meals - Northeast High",NA,"11:00am-12:00pm","11:00am-12:00pm","11:00am-12:00pm","11:00am-12:00pm","11:00am-12:00pm","Closed","Closed","6700 McLeansville Road",NA,"McLeansville",NA,"https://www.gcsnc.com/",NA,NA,"Food distribution for any children ages 0 – 18
Grab-and-go and Satellite food sites are open from 11 a.m. to 12 p.m. Monday through Friday.
This does not include formula for infants
Food is also delivered by bus to “students that are most vulnerable and need it most.” I.e. homeless students or those in temporary housing.
GUILFORD COUNTY SCHOOLS FOOD HOTLINE: 336.332.7290 (24 hour hotline)",NA,"6700 McLeansville Road McLeansville, NC",-79.6734524,36.1586072,"6700 mcleansville rd, mcleansville, nc 27301, usa"
"Guilford County Schools","Guilford","Grab & Go Meals - Northwest High",NA,"11:00am-12:00pm","11:00am-12:00pm","11:00am-12:00pm","11:00am-12:00pm","11:00am-12:00pm","Closed","Closed","5240 Northwest School Road",NA,"Greensboro",NA,"https://www.gcsnc.com/",NA,NA,"Food distribution for any children ages 0 – 18
Grab-and-go and Satellite food sites are open from 11 a.m. to 12 p.m. Monday through Friday.
This does not include formula for infants
Food is also delivered by bus to “students that are most vulnerable and need it most.” I.e. homeless students or those in temporary housing.
GUILFORD COUNTY SCHOOLS FOOD HOTLINE: 336.332.7290 (24 hour hotline)",NA,"5240 Northwest School Road Greensboro, NC",-79.9533469,36.155372,"5240 nw school rd, greensboro, nc 27409, usa"
"Guilford County Schools","Guilford","Grab & Go Meals - Oak Hill Elementary",NA,"11:00am-12:00pm","11:00am-12:00pm","11:00am-12:00pm","11:00am-12:00pm","11:00am-12:00pm","Closed","Closed","320 Wrightenberry Street",NA,"High Point",NA,"https://www.gcsnc.com/",NA,NA,"Food distribution for any children ages 0 – 18
Grab-and-go and Satellite food sites are open from 11 a.m. to 12 p.m. Monday through Friday.
This does not include formula for infants
Food is also delivered by bus to “students that are most vulnerable and need it most.” I.e. homeless students or those in temporary housing.
GUILFORD COUNTY SCHOOLS FOOD HOTLINE: 336.332.7290 (24 hour hotline)",NA,"320 Wrightenberry Street High Point, NC",-80.025848,35.9358039,"320 wrightenberry st, high point, nc 27260, usa"
"Guilford County Schools","Guilford","Grab & Go Meals - Oak View Elementary",NA,"11:00am-12:00pm","11:00am-12:00pm","11:00am-12:00pm","11:00am-12:00pm","11:00am-12:00pm","Closed","Closed","614 Oakview Road",NA,"High Point",NA,"https://www.gcsnc.com/",NA,NA,"Food distribution for any children ages 0 – 18
Grab-and-go and Satellite food sites are open from 11 a.m. to 12 p.m. Monday through Friday.
This does not include formula for infants
Food is also delivered by bus to “students that are most vulnerable and need it most.” I.e. homeless students or those in temporary housing.
GUILFORD COUNTY SCHOOLS FOOD HOTLINE: 336.332.7290 (24 hour hotline)",NA,"614 Oakview Road High Point, NC",-80.0160023,35.9999141,"614 oakview rd, high point, nc 27265, usa"
"Guilford County Schools","Guilford","Grab & Go Meals - Parkview Elementary",NA,"11:00am-12:00pm","11:00am-12:00pm","11:00am-12:00pm","11:00am-12:00pm","11:00am-12:00pm","Closed","Closed","325 Gordon Street",NA,"High Point",NA,"https://www.gcsnc.com/",NA,NA,"Food distribution for any children ages 0 – 18
Grab-and-go and Satellite food sites are open from 11 a.m. to 12 p.m. Monday through Friday.
This does not include formula for infants
Food is also delivered by bus to “students that are most vulnerable and need it most.” I.e. homeless students or those in temporary housing.
GUILFORD COUNTY SCHOOLS FOOD HOTLINE: 336.332.7290 (24 hour hotline)",NA,"325 Gordon Street High Point, NC",-79.9830726,35.9693771,"325 gordon st, high point, nc 27260, usa"
"Guilford County Schools","Guilford","Grab & Go Meals - Peck Elementary",NA,"11:00am-12:00pm","11:00am-12:00pm","11:00am-12:00pm","11:00am-12:00pm","11:00am-12:00pm","Closed","Closed","1601 West Florida Street",NA,"Greensboro",NA,"https://www.gcsnc.com/",NA,NA,"Food distribution for any children ages 0 – 18
Grab-and-go and Satellite food sites are open from 11 a.m. to 12 p.m. Monday through Friday.
This does not include formula for infants
Food is also delivered by bus to “students that are most vulnerable and need it most.” I.e. homeless students or those in temporary housing.
GUILFORD COUNTY SCHOOLS FOOD HOTLINE: 336.332.7290 (24 hour hotline)",NA,"1601 West Florida Street Greensboro, NC",-79.8176267,36.0512123,"1601 w florida st, greensboro, nc 27403, usa"
"Guilford County Schools","Guilford","Grab & Go Meals - Ragsdale High",NA,"11:00am-12:00pm","11:00am-12:00pm","11:00am-12:00pm","11:00am-12:00pm","11:00am-12:00pm","Closed","Closed","1000 Lucy Ragsdale Drive",NA,"Jamestown",NA,"https://www.gcsnc.com/",NA,NA,"Food distribution for any children ages 0 – 18
Grab-and-go and Satellite food sites are open from 11 a.m. to 12 p.m. Monday through Friday.
This does not include formula for infants
Food is also delivered by bus to “students that are most vulnerable and need it most.” I.e. homeless students or those in temporary housing.
GUILFORD COUNTY SCHOOLS FOOD HOTLINE: 336.332.7290 (24 hour hotline)",NA,"1000 Lucy Ragsdale Drive Jamestown, NC",-79.9164009,35.9943517,"1000 lucy ragsdale dr, jamestown, nc 27282, usa"
"Guilford County Schools","Guilford","Grab & Go Meals - Rankin Elementary",NA,"11:00am-12:00pm","11:00am-12:00pm","11:00am-12:00pm","11:00am-12:00pm","11:00am-12:00pm","Closed","Closed","1501 Spry Street",NA,"Greensboro",NA,"https://www.gcsnc.com/",NA,NA,"Food distribution for any children ages 0 – 18
Grab-and-go and Satellite food sites are open from 11 a.m. to 12 p.m. Monday through Friday.
This does not include formula for infants
Food is also delivered by bus to “students that are most vulnerable and need it most.” I.e. homeless students or those in temporary housing.
GUILFORD COUNTY SCHOOLS FOOD HOTLINE: 336.332.7290 (24 hour hotline)",NA,"1501 Spry Street Greensboro, NC",-79.763688,36.120172,"1501 spry st, greensboro, nc 27405, usa"
"Guilford County Schools","Guilford","Grab & Go Meals - Southeast High",NA,"11:00am-12:00pm","11:00am-12:00pm","11:00am-12:00pm","11:00am-12:00pm","11:00am-12:00pm","Closed","Closed","4530 Southeast School Road",NA,"Greensboro",NA,"https://www.gcsnc.com/",NA,NA,"Food distribution for any children ages 0 – 18
Grab-and-go and Satellite food sites are open from 11 a.m. to 12 p.m. Monday through Friday.
This does not include formula for infants
Food is also delivered by bus to “students that are most vulnerable and need it most.” I.e. homeless students or those in temporary housing.
GUILFORD COUNTY SCHOOLS FOOD HOTLINE: 336.332.7290 (24 hour hotline)",NA,"4530 Southeast School Road Greensboro, NC",-79.6963339,35.97351,"4530 se school rd, greensboro, nc 27406, usa"
"Guilford County Schools","Guilford","Grab & Go Meals - Southern High",NA,"11:00am-12:00pm","11:00am-12:00pm","11:00am-12:00pm","11:00am-12:00pm","11:00am-12:00pm","Closed","Closed","5700 Drake Rd",NA,"Greensboro",NA,"https://www.gcsnc.com/",NA,NA,"Food distribution for any children ages 0 – 18
Grab-and-go and Satellite food sites are open from 11 a.m. to 12 p.m. Monday through Friday.
This does not include formula for infants
Food is also delivered by bus to “students that are most vulnerable and need it most.” I.e. homeless students or those in temporary housing.
GUILFORD COUNTY SCHOOLS FOOD HOTLINE: 336.332.7290 (24 hour hotline)",NA,"5700 Drake Rd Greensboro, NC",-79.8556645,35.9489558,"5700 drake rd, greensboro, nc 27406, usa"
"Guilford County Schools","Guilford","Grab & Go Meals - Swann Middle",NA,"11:00am-12:00pm","11:00am-12:00pm","11:00am-12:00pm","11:00am-12:00pm","11:00am-12:00pm","Closed","Closed","811 Cypress Street",NA,"Greensboro",NA,"https://www.gcsnc.com/",NA,NA,"Food distribution for any children ages 0 – 18
Grab-and-go and Satellite food sites are open from 11 a.m. to 12 p.m. Monday through Friday.
This does not include formula for infants
Food is also delivered by bus to “students that are most vulnerable and need it most.” I.e. homeless students or those in temporary housing.
GUILFORD COUNTY SCHOOLS FOOD HOTLINE: 336.332.7290 (24 hour hotline)",NA,"811 Cypress Street Greensboro, NC",-79.780809,36.0841568,"811 cypress st, greensboro, nc 27405, usa"
"Guilford County Schools","Guilford","Grab & Go Meals - Washington Elementary",NA,"11:00am-12:00pm","11:00am-12:00pm","11:00am-12:00pm","11:00am-12:00pm","11:00am-12:00pm","Closed","Closed","1110 E. Washington Street",NA,"Greensboro",NA,"https://www.gcsnc.com/",NA,NA,"Food distribution for any children ages 0 – 18
Grab-and-go and Satellite food sites are open from 11 a.m. to 12 p.m. Monday through Friday.
This does not include formula for infants
Food is also delivered by bus to “students that are most vulnerable and need it most.” I.e. homeless students or those in temporary housing.
GUILFORD COUNTY SCHOOLS FOOD HOTLINE: 336.332.7290 (24 hour hotline)",NA,"1110 E. Washington Street Greensboro, NC",-79.7737182,36.0683002,"1110 e washington st, greensboro, nc 27401, usa"
"Guilford County Schools","Guilford","Grab & Go Meals - Welborn Middle",NA,"11:00am-12:00pm","11:00am-12:00pm","11:00am-12:00pm","11:00am-12:00pm","11:00am-12:00pm","Closed","Closed","1710 McGuinn Drive",NA,"High Point",NA,"https://www.gcsnc.com/",NA,NA,"Food distribution for any children ages 0 – 18
Grab-and-go and Satellite food sites are open from 11 a.m. to 12 p.m. Monday through Friday.
This does not include formula for infants
Food is also delivered by bus to “students that are most vulnerable and need it most.” I.e. homeless students or those in temporary housing.
GUILFORD COUNTY SCHOOLS FOOD HOTLINE: 336.332.7290 (24 hour hotline)",NA,"1710 McGuinn Drive High Point, NC",-79.9906734,35.9823423,"1710 mcguinn dr, high point, nc 27265, usa"
"Guilford County Schools","Guilford","Grab & Go Meals - Western Middle",NA,"11:00am-12:00pm","11:00am-12:00pm","11:00am-12:00pm","11:00am-12:00pm","11:00am-12:00pm","Closed","Closed","401 College Road",NA,"Greensboro",NA,"https://www.gcsnc.com/",NA,NA,"Food distribution for any children ages 0 – 18
Grab-and-go and Satellite food sites are open from 11 a.m. to 12 p.m. Monday through Friday.
This does not include formula for infants
Food is also delivered by bus to “students that are most vulnerable and need it most.” I.e. homeless students or those in temporary housing.
GUILFORD COUNTY SCHOOLS FOOD HOTLINE: 336.332.7290 (24 hour hotline)",NA,"401 College Road Greensboro, NC",-79.8946519,36.083142,"401 college rd, greensboro, nc 27410, usa"
"Guilford County Schools","Guilford","Grab & Go Meals - Wiley Elementary",NA,"11:00am-12:00pm","11:00am-12:00pm","11:00am-12:00pm","11:00am-12:00pm","11:00am-12:00pm","Closed","Closed","600 West Terrell Street",NA,"Greensboro",NA,"https://www.gcsnc.com/",NA,NA,"Food distribution for any children ages 0 – 18
Grab-and-go and Satellite food sites are open from 11 a.m. to 12 p.m. Monday through Friday.
This does not include formula for infants
Food is also delivered by bus to “students that are most vulnerable and need it most.” I.e. homeless students or those in temporary housing.
GUILFORD COUNTY SCHOOLS FOOD HOTLINE: 336.332.7290 (24 hour hotline)",NA,"600 West Terrell Street Greensboro, NC",-79.8024983,36.0486215,"600 w terrell st, greensboro, nc 27406, usa"
"Guilford County Schools","Guilford","Grab & Go Meals - Park Street Terrace Apartments",NA,"11:00am-12:00pm","11:00am-12:00pm","11:00am-12:00pm","11:00am-12:00pm","11:00am-12:00pm","Closed","Closed","885 Sharon Street",NA,"High Point",NA,"https://www.gcsnc.com/",NA,NA,"Food distribution for any children ages 0 – 18
Grab-and-go and Satellite food sites are open from 11 a.m. to 12 p.m. Monday through Friday.
This does not include formula for infants
Food is also delivered by bus to “students that are most vulnerable and need it most.” I.e. homeless students or those in temporary housing.
GUILFORD COUNTY SCHOOLS FOOD HOTLINE: 336.332.7290 (24 hour hotline)",NA,"885 Sharon Street High Point, NC",-79.9960223,35.9504683,"885 sharon st, high point, nc 27260, usa"
"Guilford County Schools","Guilford","Grab & Go Meals - Brentwood Crossing",NA,"11:00am-12:00pm","11:00am-12:00pm","11:00am-12:00pm","11:00am-12:00pm","11:00am-12:00pm","Closed","Closed","200 Brentwood Street",NA,"High Point",NA,"https://www.gcsnc.com/",NA,NA,"Food distribution for any children ages 0 – 18
Grab-and-go and Satellite food sites are open from 11 a.m. to 12 p.m. Monday through Friday.
This does not include formula for infants
Food is also delivered by bus to “students that are most vulnerable and need it most.” I.e. homeless students or those in temporary housing.
GUILFORD COUNTY SCHOOLS FOOD HOTLINE: 336.332.7290 (24 hour hotline)",NA,"200 Brentwood Street High Point, NC",-79.9782472,35.9652776,"200 brentwood st, high point, nc 27260, usa"
"Guilford County Schools","Guilford","Grab & Go Meals - New Gate Apartments",NA,"11:00am-12:00pm","11:00am-12:00pm","11:00am-12:00pm","11:00am-12:00pm","11:00am-12:00pm","Closed","Closed","1605 Ganby Avenue",NA,"High Point",NA,"https://www.gcsnc.com/",NA,NA,"Food distribution for any children ages 0 – 18
Grab-and-go and Satellite food sites are open from 11 a.m. to 12 p.m. Monday through Friday.
This does not include formula for infants
Food is also delivered by bus to “students that are most vulnerable and need it most.” I.e. homeless students or those in temporary housing.
GUILFORD COUNTY SCHOOLS FOOD HOTLINE: 336.332.7290 (24 hour hotline)",NA,"1605 Ganby Avenue High Point, NC",-79.9927111,35.9580405,"1605 granby ave, high point, nc 27260, usa"
"Guilford County Schools","Guilford","Grab & Go Meals - Laurelwood Apartments",NA,"11:00am-12:00pm","11:00am-12:00pm","11:00am-12:00pm","11:00am-12:00pm","11:00am-12:00pm","Closed","Closed","1300 Burton Road",NA,"  High Point",NA,"https://www.gcsnc.com/",NA,NA,"Food distribution for any children ages 0 – 18
Grab-and-go and Satellite food sites are open from 11 a.m. to 12 p.m. Monday through Friday.
This does not include formula for infants
Food is also delivered by bus to “students that are most vulnerable and need it most.” I.e. homeless students or those in temporary housing.
GUILFORD COUNTY SCHOOLS FOOD HOTLINE: 336.332.7290 (24 hour hotline)",NA,"1300 Burton Road   High Point, NC",-80.0442688,35.9401051,"1300 burton ave, high point, nc 27262, usa"
"Guilford County Schools","Guilford","Grab & Go Meals - Bellemeade Apartments",NA,"11:00am-12:00pm","11:00am-12:00pm","11:00am-12:00pm","11:00am-12:00pm","11:00am-12:00pm","Closed","Closed","2350 Bellemeade Street",NA,"High Point",NA,"https://www.gcsnc.com/",NA,NA,"Food distribution for any children ages 0 – 18
Grab-and-go and Satellite food sites are open from 11 a.m. to 12 p.m. Monday through Friday.
This does not include formula for infants
Food is also delivered by bus to “students that are most vulnerable and need it most.” I.e. homeless students or those in temporary housing.
GUILFORD COUNTY SCHOOLS FOOD HOTLINE: 336.332.7290 (24 hour hotline)",NA,"2350 Bellemeade Street High Point, NC",-79.9830145,35.9297645,"2350 bellemeade st, high point, nc 27263, usa"
"Guilford County Schools","Guilford","Grab & Go Meals - The Oaks at Silver Ridge",NA,"11:00am-12:00pm","11:00am-12:00pm","11:00am-12:00pm","11:00am-12:00pm","11:00am-12:00pm","Closed","Closed","2926 E. Kivett Drive",NA,"High Point",NA,"https://www.gcsnc.com/",NA,NA,"Food distribution for any children ages 0 – 18
Grab-and-go and Satellite food sites are open from 11 a.m. to 12 p.m. Monday through Friday.
This does not include formula for infants
Food is also delivered by bus to “students that are most vulnerable and need it most.” I.e. homeless students or those in temporary housing.
GUILFORD COUNTY SCHOOLS FOOD HOTLINE: 336.332.7290 (24 hour hotline)",NA,"2926 E. Kivett Drive High Point, NC",-79.9360695,35.9579541,"2926 kivett dr, high point, nc 27263, usa"
"Guilford County Schools","Guilford","Grab & Go Meals - Ingram Woods Apartments",NA,"11:00am-12:00pm","11:00am-12:00pm","11:00am-12:00pm","11:00am-12:00pm","11:00am-12:00pm","Closed","Closed","2704 Ingram Road",NA,"High Point",NA,"https://www.gcsnc.com/",NA,NA,"Food distribution for any children ages 0 – 18
Grab-and-go and Satellite food sites are open from 11 a.m. to 12 p.m. Monday through Friday.
This does not include formula for infants
Food is also delivered by bus to “students that are most vulnerable and need it most.” I.e. homeless students or those in temporary housing.
GUILFORD COUNTY SCHOOLS FOOD HOTLINE: 336.332.7290 (24 hour hotline)",NA,"2704 Ingram Road High Point, NC",-79.9577436,35.926531,"2704 ingram rd, high point, nc 27263, usa"
"Guilford County Schools","Guilford","Grab & Go Meals - Kendall Street Apartments",NA,"11:00am-12:00pm","11:00am-12:00pm","11:00am-12:00pm","11:00am-12:00pm","11:00am-12:00pm","Closed","Closed","211 Kendall Avenue",NA,"High Point",NA,"https://www.gcsnc.com/",NA,NA,"Food distribution for any children ages 0 – 18
Grab-and-go and Satellite food sites are open from 11 a.m. to 12 p.m. Monday through Friday.
This does not include formula for infants
Food is also delivered by bus to “students that are most vulnerable and need it most.” I.e. homeless students or those in temporary housing.
GUILFORD COUNTY SCHOOLS FOOD HOTLINE: 336.332.7290 (24 hour hotline)",NA,"211 Kendall Avenue High Point, NC",-79.9969144,35.9348472,"211 kendall ave, high point, nc 27260, usa"
"Guilford County Schools","Guilford","Grab & Go Meals - Ambassador Court Apartments",NA,"11:00am-12:00pm","11:00am-12:00pm","11:00am-12:00pm","11:00am-12:00pm","11:00am-12:00pm","Closed","Closed","2501 Ambassador Court",NA,"High Point",NA,"https://www.gcsnc.com/",NA,NA,"Food distribution for any children ages 0 – 18
Grab-and-go and Satellite food sites are open from 11 a.m. to 12 p.m. Monday through Friday.
This does not include formula for infants
Food is also delivered by bus to “students that are most vulnerable and need it most.” I.e. homeless students or those in temporary housing.
GUILFORD COUNTY SCHOOLS FOOD HOTLINE: 336.332.7290 (24 hour hotline)",NA,"2501 Ambassador Court High Point, NC",-79.9917287,35.9986388,"2501 ambassador ct, high point, nc 27265, usa"
"Guilford County Schools","Guilford","Grab & Go Meals - South Wind Villas",NA,"11:00am-12:00pm","11:00am-12:00pm","11:00am-12:00pm","11:00am-12:00pm","11:00am-12:00pm","Closed","Closed","820 E. South Road",NA,"High Point",NA,"https://www.gcsnc.com/",NA,NA,"Food distribution for any children ages 0 – 18
Grab-and-go and Satellite food sites are open from 11 a.m. to 12 p.m. Monday through Friday.
This does not include formula for infants
Food is also delivered by bus to “students that are most vulnerable and need it most.” I.e. homeless students or those in temporary housing.
GUILFORD COUNTY SCHOOLS FOOD HOTLINE: 336.332.7290 (24 hour hotline)",NA,"820 E. South Road High Point, NC",-80.0405641,35.9329363,"820e south rd, high point, nc 27262, usa"
"Guilford County Schools","Guilford","Grab & Go Meals - Greater New Hope Baptist Church",NA,"11:00am-12:00pm","11:00am-12:00pm","11:00am-12:00pm","11:00am-12:00pm","11:00am-12:00pm","Closed","Closed","906 Meredith Street",NA,"High Point",NA,"https://www.gcsnc.com/",NA,NA,"Food distribution for any children ages 0 – 18
Grab-and-go and Satellite food sites are open from 11 a.m. to 12 p.m. Monday through Friday.
This does not include formula for infants
Food is also delivered by bus to “students that are most vulnerable and need it most.” I.e. homeless students or those in temporary housing.
GUILFORD COUNTY SCHOOLS FOOD HOTLINE: 336.332.7290 (24 hour hotline)",NA,"906 Meredith Street High Point, NC",-79.9856016,35.955377,"906 meredith st, high point, nc 27260, usa"
"Guilford County Schools","Guilford","Grab & Go Meals - Spring Valley Apartments",NA,"11:00am-12:00pm","11:00am-12:00pm","11:00am-12:00pm","11:00am-12:00pm","11:00am-12:00pm","Closed","Closed","1403 E. Commerce Street",NA,"High Point",NA,"https://www.gcsnc.com/",NA,NA,"Food distribution for any children ages 0 – 18
Grab-and-go and Satellite food sites are open from 11 a.m. to 12 p.m. Monday through Friday.
This does not include formula for infants
Food is also delivered by bus to “students that are most vulnerable and need it most.” I.e. homeless students or those in temporary housing.
GUILFORD COUNTY SCHOOLS FOOD HOTLINE: 336.332.7290 (24 hour hotline)",NA,"1403 E. Commerce Street High Point, NC",-79.986974,35.956331,"1403 e commerce ave, high point, nc 27260, usa"
"Guilford County Schools","Guilford","Grab & Go Meals - Claremont Homes",NA,"11:00am-12:00pm","11:00am-12:00pm","11:00am-12:00pm","11:00am-12:00pm","11:00am-12:00pm","Closed","Closed","2702 Patio Place",NA,"Greensboro",NA,"https://www.gcsnc.com/",NA,NA,"Food distribution for any children ages 0 – 18
Grab-and-go and Satellite food sites are open from 11 a.m. to 12 p.m. Monday through Friday.
This does not include formula for infants
Food is also delivered by bus to “students that are most vulnerable and need it most.” I.e. homeless students or those in temporary housing.
GUILFORD COUNTY SCHOOLS FOOD HOTLINE: 336.332.7290 (24 hour hotline)",NA,"2702 Patio Place Greensboro, NC",-79.7487538,36.0985377,"2702 patio pl, greensboro, nc 27405, usa"
"Guilford County Schools","Guilford","Grab & Go Meals - Smith Homes",NA,"11:00am-12:00pm","11:00am-12:00pm","11:00am-12:00pm","11:00am-12:00pm","11:00am-12:00pm","Closed","Closed","707 W. Florida Street",NA,"Greensboro",NA,"https://www.gcsnc.com/",NA,NA,"Food distribution for any children ages 0 – 18
Grab-and-go and Satellite food sites are open from 11 a.m. to 12 p.m. Monday through Friday.
This does not include formula for infants
Food is also delivered by bus to “students that are most vulnerable and need it most.” I.e. homeless students or those in temporary housing.
GUILFORD COUNTY SCHOOLS FOOD HOTLINE: 336.332.7290 (24 hour hotline)",NA,"707 W. Florida Street Greensboro, NC",-79.8027651,36.0517595,"707 w florida st, greensboro, nc 27406, usa"
"Guilford County Schools","Guilford","Grab & Go Meals - GHA-Ray Warren Homes",NA,"11:00am-12:00pm","11:00am-12:00pm","11:00am-12:00pm","11:00am-12:00pm","11:00am-12:00pm","Closed","Closed","312 N. Swing Road",NA,"Greensboro",NA,"https://www.gcsnc.com/",NA,NA,"Food distribution for any children ages 0 – 18
Grab-and-go and Satellite food sites are open from 11 a.m. to 12 p.m. Monday through Friday.
This does not include formula for infants
Food is also delivered by bus to “students that are most vulnerable and need it most.” I.e. homeless students or those in temporary housing.
GUILFORD COUNTY SCHOOLS FOOD HOTLINE: 336.332.7290 (24 hour hotline)",NA,"312 N. Swing Road Greensboro, NC",-79.9099151,36.076378,"304 n swing rd, greensboro, nc 27409, usa"
"Guilford County Schools","Guilford","Grab & Go Meals - Turnbridge Apartments",NA,"11:00am-12:00pm","11:00am-12:00pm","11:00am-12:00pm","11:00am-12:00pm","11:00am-12:00pm","Closed","Closed","503 Turnbridge Circle",NA,"Brown Summit",NA,"https://www.gcsnc.com/",NA,NA,"Food distribution for any children ages 0 – 18
Grab-and-go and Satellite food sites are open from 11 a.m. to 12 p.m. Monday through Friday.
This does not include formula for infants
Food is also delivered by bus to “students that are most vulnerable and need it most.” I.e. homeless students or those in temporary housing.
GUILFORD COUNTY SCHOOLS FOOD HOTLINE: 336.332.7290 (24 hour hotline)",NA,"503 Turnbridge Circle Brown Summit, NC",-79.7783161,36.1482356,"turnbridge cir, greensboro, nc 27214, usa"
"Guilford County Schools","Guilford","Grab & Go Meals - Northland Apartments",NA,"11:00am-12:00pm","11:00am-12:00pm","11:00am-12:00pm","11:00am-12:00pm","11:00am-12:00pm","Closed","Closed","3319 O’Henry Blvd.",NA,"Greensboro",NA,"https://www.gcsnc.com/",NA,NA,"Food distribution for any children ages 0 – 18
Grab-and-go and Satellite food sites are open from 11 a.m. to 12 p.m. Monday through Friday.
This does not include formula for infants
Food is also delivered by bus to “students that are most vulnerable and need it most.” I.e. homeless students or those in temporary housing.
GUILFORD COUNTY SCHOOLS FOOD HOTLINE: 336.332.7290 (24 hour hotline)",NA,"3319 O’Henry Blvd. Greensboro, NC",-79.7508621,36.1240005,"3319 n o henry blvd, greensboro, nc 27405, usa"
"Guilford County Schools","Guilford","Grab & Go Meals - Autumn Forest Trailer Park",NA,"11:00am-12:00pm","11:00am-12:00pm","11:00am-12:00pm","11:00am-12:00pm","11:00am-12:00pm","Closed","Closed","3700 Autumn Forest Drive",NA,"Brown Summit",NA,"https://www.gcsnc.com/",NA,NA,"Food distribution for any children ages 0 – 18
Grab-and-go and Satellite food sites are open from 11 a.m. to 12 p.m. Monday through Friday.
This does not include formula for infants
Food is also delivered by bus to “students that are most vulnerable and need it most.” I.e. homeless students or those in temporary housing.
GUILFORD COUNTY SCHOOLS FOOD HOTLINE: 336.332.7290 (24 hour hotline)",NA,"3700 Autumn Forest Drive Brown Summit, NC",-79.7205661,36.2016808,"3700 autumn forest dr, browns summit, nc 27214, usa"
"Guilford County Schools","Guilford","Grab & Go Meals - Choice Hotel",NA,"11:00am-12:00pm","11:00am-12:00pm","11:00am-12:00pm","11:00am-12:00pm","11:00am-12:00pm","Closed","Closed","110 Seneca Road",NA,"Greensboro",NA,"https://www.gcsnc.com/",NA,NA,"Food distribution for any children ages 0 – 18
Grab-and-go and Satellite food sites are open from 11 a.m. to 12 p.m. Monday through Friday.
This does not include formula for infants
Food is also delivered by bus to “students that are most vulnerable and need it most.” I.e. homeless students or those in temporary housing.
GUILFORD COUNTY SCHOOLS FOOD HOTLINE: 336.332.7290 (24 hour hotline)",NA,"110 Seneca Road Greensboro, NC",-79.7899334,36.0353164,"110 seneca rd, greensboro, nc 27406, usa"
"Guilford County Schools","Guilford","Grab & Go Meals - Juanita Hills",NA,"11:00am-12:00pm","11:00am-12:00pm","11:00am-12:00pm","11:00am-12:00pm","11:00am-12:00pm","Closed","Closed","2701 Annmore Circle",NA,"High Point",NA,"https://www.gcsnc.com/",NA,NA,"Food distribution for any children ages 0 – 18
Grab-and-go and Satellite food sites are open from 11 a.m. to 12 p.m. Monday through Friday.
This does not include formula for infants
Food is also delivered by bus to “students that are most vulnerable and need it most.” I.e. homeless students or those in temporary housing.
GUILFORD COUNTY SCHOOLS FOOD HOTLINE: 336.332.7290 (24 hour hotline)",NA,"2701 Annmore Circle High Point, NC",-80.04011,35.9343312,"2701 annmoore cir, high point, nc 27262, usa"
"Guilford County Schools","Guilford","Grab & Go Meals - Carson Stout Homes",NA,"11:00am-12:00pm","11:00am-12:00pm","11:00am-12:00pm","11:00am-12:00pm","11:00am-12:00pm","Closed","Closed","501 Anaheim Street",NA,"High Point",NA,"https://www.gcsnc.com/",NA,NA,"Food distribution for any children ages 0 – 18
Grab-and-go and Satellite food sites are open from 11 a.m. to 12 p.m. Monday through Friday.
This does not include formula for infants
Food is also delivered by bus to “students that are most vulnerable and need it most.” I.e. homeless students or those in temporary housing.
GUILFORD COUNTY SCHOOLS FOOD HOTLINE: 336.332.7290 (24 hour hotline)",NA,"501 Anaheim Street High Point, NC",-79.9771417,35.970892,"501 anaheim st, high point, nc 27260, usa"
"Guilford County Schools","Guilford","Grab & Go Meals - Daniel Brooks Homes",NA,"11:00am-12:00pm","11:00am-12:00pm","11:00am-12:00pm","11:00am-12:00pm","11:00am-12:00pm","Closed","Closed","1455 West Avenue",NA,"High Point",NA,"https://www.gcsnc.com/",NA,NA,"Food distribution for any children ages 0 – 18
Grab-and-go and Satellite food sites are open from 11 a.m. to 12 p.m. Monday through Friday.
This does not include formula for infants
Food is also delivered by bus to “students that are most vulnerable and need it most.” I.e. homeless students or those in temporary housing.
GUILFORD COUNTY SCHOOLS FOOD HOTLINE: 336.332.7290 (24 hour hotline)",NA,"1455 West Avenue High Point, NC",-79.9919734,35.9649253,"1455 west ave, high point, nc 27260, usa"
"Guilford County Schools","Guilford","Grab & Go Meals - Laurelwood Apartments",NA,"11:00am-12:00pm","11:00am-12:00pm","11:00am-12:00pm","11:00am-12:00pm","11:00am-12:00pm","Closed","Closed","1300 Burton Road",NA,"High Point",NA,"https://www.gcsnc.com/",NA,NA,"Food distribution for any children ages 0 – 18
Grab-and-go and Satellite food sites are open from 11 a.m. to 12 p.m. Monday through Friday.
This does not include formula for infants
Food is also delivered by bus to “students that are most vulnerable and need it most.” I.e. homeless students or those in temporary housing.
GUILFORD COUNTY SCHOOLS FOOD HOTLINE: 336.332.7290 (24 hour hotline)",NA,"1300 Burton Road High Point, NC",-80.0442688,35.9401051,"1300 burton ave, high point, nc 27262, usa"
"Guilford County Schools","Guilford","Grab & Go Meals - Oak Ridge Commons",NA,"11:00am-12:00pm","11:00am-12:00pm","11:00am-12:00pm","11:00am-12:00pm","11:00am-12:00pm","Closed","Closed","2205 Oak Ridge Road",NA,"Oak Ridge",NA,"https://www.gcsnc.com/",NA,NA,"Food distribution for any children ages 0 – 18
Grab-and-go and Satellite food sites are open from 11 a.m. to 12 p.m. Monday through Friday.
This does not include formula for infants
Food is also delivered by bus to “students that are most vulnerable and need it most.” I.e. homeless students or those in temporary housing.
GUILFORD COUNTY SCHOOLS FOOD HOTLINE: 336.332.7290 (24 hour hotline)",NA,"2205 Oak Ridge Road Oak Ridge, NC",-79.9909575,36.1741407,"2205 oak ridge rd, oak ridge, nc 27310, usa"
"Guilford County Schools","Guilford","Grab & Go Meals - Summerfield Mobile Home Park",NA,"11:00am-12:00pm","11:00am-12:00pm","11:00am-12:00pm","11:00am-12:00pm","11:00am-12:00pm","Closed","Closed","172 Turfwood Circle",NA,"Stokesdale",NA,"https://www.gcsnc.com/",NA,NA,"Food distribution for any children ages 0 – 18
Grab-and-go and Satellite food sites are open from 11 a.m. to 12 p.m. Monday through Friday.
This does not include formula for infants
Food is also delivered by bus to “students that are most vulnerable and need it most.” I.e. homeless students or those in temporary housing.
GUILFORD COUNTY SCHOOLS FOOD HOTLINE: 336.332.7290 (24 hour hotline)",NA,"172 Turfwood Circle Stokesdale, NC",-79.943524,36.291455,"172 turfwood cir, stokesdale, nc 27357, usa"
"Guilford County Schools","Guilford","Grab & Go Meals - Pathway",NA,"11:00am-12:00pm","11:00am-12:00pm","11:00am-12:00pm","11:00am-12:00pm","11:00am-12:00pm","Closed","Closed","3517 N. Church Street",NA,"Greensboro",NA,"https://www.gcsnc.com/",NA,NA,"Food distribution for any children ages 0 – 18
Grab-and-go and Satellite food sites are open from 11 a.m. to 12 p.m. Monday through Friday.
This does not include formula for infants
Food is also delivered by bus to “students that are most vulnerable and need it most.” I.e. homeless students or those in temporary housing.
GUILFORD COUNTY SCHOOLS FOOD HOTLINE: 336.332.7290 (24 hour hotline)",NA,"3517 N. Church Street Greensboro, NC",-79.7891311,36.1275324,"3517 n church st, greensboro, nc 27405, usa"
"Guilford County Schools","Guilford","Grab & Go Meals - Allerton Apartments",NA,"11:00am-12:00pm","11:00am-12:00pm","11:00am-12:00pm","11:00am-12:00pm","11:00am-12:00pm","Closed","Closed","3201 Allerton Circle",NA,"Greensboro",NA,"https://www.gcsnc.com/",NA,NA,"Food distribution for any children ages 0 – 18
Grab-and-go and Satellite food sites are open from 11 a.m. to 12 p.m. Monday through Friday.
This does not include formula for infants
Food is also delivered by bus to “students that are most vulnerable and need it most.” I.e. homeless students or those in temporary housing.
GUILFORD COUNTY SCHOOLS FOOD HOTLINE: 336.332.7290 (24 hour hotline)",NA,"3201 Allerton Circle Greensboro, NC",-79.9579089,36.1263193,"3201 allerton cir, greensboro, nc 27409, usa"
"Guilford County Schools","Guilford","Grab & Go Meals - Plantation Apartments",NA,"11:00am-12:00pm","11:00am-12:00pm","11:00am-12:00pm","11:00am-12:00pm","11:00am-12:00pm","Closed","Closed","1101 Berkley Manor Way",NA,"Greensboro",NA,"https://www.gcsnc.com/",NA,NA,"Food distribution for any children ages 0 – 18
Grab-and-go and Satellite food sites are open from 11 a.m. to 12 p.m. Monday through Friday.
This does not include formula for infants
Food is also delivered by bus to “students that are most vulnerable and need it most.” I.e. homeless students or those in temporary housing.
GUILFORD COUNTY SCHOOLS FOOD HOTLINE: 336.332.7290 (24 hour hotline)",NA,"1101 Berkley Manor Way Greensboro, NC",-79.9734218,36.1166079,"1101 berkley manor way, greensboro, nc 27409, usa"
"Guilford County Schools","Guilford","Grab & Go Meals - Greenbriar",NA,"11:00am-12:00pm","11:00am-12:00pm","11:00am-12:00pm","11:00am-12:00pm","11:00am-12:00pm","Closed","Closed","129 Greenbriar Road",NA,"Greensboro",NA,"https://www.gcsnc.com/",NA,NA,"Food distribution for any children ages 0 – 18
Grab-and-go and Satellite food sites are open from 11 a.m. to 12 p.m. Monday through Friday.
This does not include formula for infants
Food is also delivered by bus to “students that are most vulnerable and need it most.” I.e. homeless students or those in temporary housing.
GUILFORD COUNTY SCHOOLS FOOD HOTLINE: 336.332.7290 (24 hour hotline)",NA,"129 Greenbriar Road Greensboro, NC",-79.7932139,36.1278961,"129 greenbriar rd, greensboro, nc 27405, usa"
"Guilford County Schools","Guilford","Grab & Go Meals - Hayleigh Village",NA,"11:00am-12:00pm","11:00am-12:00pm","11:00am-12:00pm","11:00am-12:00pm","11:00am-12:00pm","Closed","Closed","4020 Eight Belles Lane",NA,"Greensboro",NA,"https://www.gcsnc.com/",NA,NA,"Food distribution for any children ages 0 – 18
Grab-and-go and Satellite food sites are open from 11 a.m. to 12 p.m. Monday through Friday.
This does not include formula for infants
Food is also delivered by bus to “students that are most vulnerable and need it most.” I.e. homeless students or those in temporary housing.
GUILFORD COUNTY SCHOOLS FOOD HOTLINE: 336.332.7290 (24 hour hotline)",NA,"4020 Eight Belles Lane Greensboro, NC",-79.8832328,36.1426144,"4020 eight belles ln, greensboro, nc 27410, usa"
"FaithAction International House","Guilford","FaithAction ID Program",NA,"Closed","Closed","Closed","Closed","10:00am to 1:00pm","Closed","Closed","705 N. Greene Street",NA,"Greensboro",27401,"https://faithaction.org/","336-379-0037","FaithAction and FaithAction ID network partners provide ID cards to individuals who may not currently have access to government issued forms of ID, including new immigrants and refugees, homeless and elderly individuals, those recently returning from jail, and others who believe in a diverse and inclusive community.","Due to COVID 19, the office is closed to the public, phone-based appointments only. Call 336-379-0037 and leave a message with the person you want to speak with, they will call back from a private #",NA,"705 N. Greene Street Greensboro, NC",-79.7912896,36.0804364,"705 n greene st, greensboro, nc 27401, usa"
"FaithAction International House","Guilford","Immigrant Assistance Center",NA,"9:00 am -5:00pm","10:00 am-6:00pm","9:00 am -5:00pm","10:00 am-6:00 pm","9:00 am -5:00pm","Closed","Closed","705 N. Greene Street",NA,"Greensboro",27401,"https://faithaction.org/","336-379-0037","FaithAction's bilingual staff provide one on one help with: Basic needs (food and diapers, healthcare, and housing issues); FaithAction ID cards; Education opportunities and employment readiness; Safe space and accompaniment for domestic/sexual violence survivors; Emergency assistance to families facing detention and deportation; Referrals for furniture, clothing, legal services, etc.","Due to COVID 19, the office is closed to the public, phone-based appointments only. Call 336-379-0037 and leave a message with the person you want to speak with, they will call back from a private #",NA,"705 N. Greene Street Greensboro, NC",-79.7912896,36.0804364,"705 n greene st, greensboro, nc 27401, usa"
"Room at the Inn","Guilford","Mary Nussbaum Maternity Home",NA,"9:00am -2:00pm","9:00am -2:00pm","9:00am -2:00pm","9:00am -2:00pm","Closed","Closed","Closed","734 Park Ave",NA,"Greensboro",27405,"https://www.roominn.org/","336-996-3788","Room At The Inn, Inc. is an unique, comprehensive program helping homeless single pregnant women with or without previous children. Room at the Inn helps not only during pregnancies but also after the birth of their babies.","Agency offers various programs to residents only. Residents are self isolating due to COVID-19",NA,"734 Park Ave Greensboro, NC",-79.7779884,36.0805823,"734 park ave, greensboro, nc 27405, usa"
"Kellin Foundation","Guilford","Greensboro HEALS",NA,"Closed","Closed","Closed","Closed","Closed","Closed","Closed","2110 Golden Gate Drive, Suite B",NA,"Greensboro",27405,"http://www.kellinfoundation.org/","336-429-5600","Provides uninsured individuals ages 19-64 with free mental health and substance abuse services.",NA,NA,"2110 Golden Gate Drive, Suite B Greensboro, NC",-79.7843386,36.1016337,"2110 golden gate dr suite b, greensboro, nc 27405, usa"
"Kellin Foundation","Guilford","Girls Leadership Edge",NA,"Closed","Closed","Closed","Closed","Closed","Closed","Closed","2110 Golden Gate Drive, Suite B",NA,"Greensboro",27405,"http://www.kellinfoundation.org/","336-429-5600","is an evidence-based leadership skills development curriculum designed for girls ages 13 to 15.",NA,NA,"2110 Golden Gate Drive, Suite B Greensboro, NC",-79.7843386,36.1016337,"2110 golden gate dr suite b, greensboro, nc 27405, usa"
"Kellin Foundation","Guilford","Greensboro Crisis Response Iniative",NA,"Closed","Closed","Closed","Closed","Closed","Closed","Closed","2110 Golden Gate Drive, Suite B",NA,"Greensboro",27405,"http://www.kellinfoundation.org/","336-429-5600","A trauma-informed, culturally-competent, and comprehensive coordinated community response for child victims and their families.",NA,NA,"2110 Golden Gate Drive, Suite B Greensboro, NC",-79.7843386,36.1016337,"2110 golden gate dr suite b, greensboro, nc 27405, usa"
"Kellin Foundation","Guilford","Kellin Kids",NA,"Closed","Closed","Closed","Closed","Closed","Closed","Closed","2110 Golden Gate Drive, Suite B",NA,"Greensboro",27405,"http://www.kellinfoundation.org/","336-429-5600","A kid developed and kid driven program designed to find solutions for community problems. KK allows volunteer opportunities for children to get involved",NA,NA,"2110 Golden Gate Drive, Suite B Greensboro, NC",-79.7843386,36.1016337,"2110 golden gate dr suite b, greensboro, nc 27405, usa"
"Kellin Foundation","Guilford","Tree House",NA,"Closed","Closed","Closed","Closed","Closed","Closed","Closed","2110 Golden Gate Drive, Suite B",NA,"Greensboro",27405,"http://www.kellinfoundation.org/","336-429-5600","Provides trauma-informed assessment and treatment services for children, adults and families who have been exposed to stressful events. The goal of the Treehouse is be a bridge from crisis to wellness",NA,NA,"2110 Golden Gate Drive, Suite B Greensboro, NC",-79.7843386,36.1016337,"2110 golden gate dr suite b, greensboro, nc 27405, usa"
"Kellin Foundation","Guilford","Lindy's Kids",NA,"Closed","Closed","Closed","Closed","Closed","Closed","Closed","2110 Golden Gate Drive, Suite B",NA,"Greensboro",27405,"http://www.kellinfoundation.org/","336-429-5600","Provides assistance to kids and families to help ensure safety and wellness.",NA,NA,"2110 Golden Gate Drive, Suite B Greensboro, NC",-79.7843386,36.1016337,"2110 golden gate dr suite b, greensboro, nc 27405, usa"
"Kellin Foundation","Guilford","Guilford County Trauma Provider Network",NA,"Closed","Closed","Closed","Closed","Closed","Closed","Closed","2110 Golden Gate Drive, Suite B",NA,"Greensboro",27405,"http://www.kellinfoundation.org/","336-429-5600","A  group of providers, law enforcement, and community members that meet monthly and work collaboratively to address the needs of children and families who have experienced trauma.",NA,NA,"2110 Golden Gate Drive, Suite B Greensboro, NC",-79.7843386,36.1016337,"2110 golden gate dr suite b, greensboro, nc 27405, usa"
"Mental Health Greensboro","Guilford","Mental Health Greensboro",NA,"Closed","Closed","Closed","Closed","Closed","Closed","Closed","700 Walter Reed Dr.,",NA,"Greensboro",27403,"https://www.mhag.org/","336-373-1402","Public education services include Mental Health First Aid and QPR Suicide Intervention, and the Provider Academy that provides educational opportunities for healthcare professionals","Closed until further notice. All Support groups and events canceled.",NA,"700 Walter Reed Dr., Greensboro, NC",-79.8229881,36.0828073,"700 walter reed dr, greensboro, nc 27403, usa"
"Postpartum Support International","Guilford","Postpartum Support International",NA,"Closed","Closed","Closed","Closed","Closed","Closed","Closed",NA,NA,NA,NA,"https://www.postpartum.net/","800-944-4773","24 hour hotline for mothers experiencing postpartum depression, online support groups, provider directory",NA,NA,NA,-79.9985418,35.9546024,"505 e green dr, high point, nc 27260, usa"
"Therapeutic Alternatives","Guilford","Mobile Crisis",NA,"Closed","Closed","Closed","Closed","Closed","Closed","Closed",NA,NA,NA,NA,"https://www.mytahome.com/mobile-crisis","1-877-626-1772","Mobile Crisis Management provides immediate crisis response 24 hours a day, 7 days a week. Services include: telephone assessments, face-to-face evaluation when needed, educational services for crisis prevention, evaluations for safety, access to crisis stabilization interventions for mental health and/or substance abuse services, development of a crisis plan for current and future use, assistance with hospitalizations, and integrated crisis response and crisis prevention activities with linkage to ongoing services if needed. **This can definitely be paired down**",NA,NA,NA,-79.9985418,35.9546024,"505 e green dr, high point, nc 27260, usa"
"Therapeutic Alternatives","Guilford","Corporate offices",NA,"Closed","Closed","Closed","Closed","Closed","Closed","Closed","PO Box 814",NA,"Randleman",27317,NA,"336-495-2700",NA,NA,NA,"PO Box 814 Randleman, NC",-79.9985418,35.9546024,"505 e green dr, high point, nc 27260, usa"
"Therapeutic Alternatives","Guilford","Asheboro office",NA,"Closed","Closed","Closed","Closed","Closed","Closed","Closed","962 S. Fayetteville Street",NA,"Asheboro",27203,NA,"336-626-1700",NA,NA,NA,"962 S. Fayetteville Street Asheboro, NC",-79.9985418,35.9546024,"505 e green dr, high point, nc 27260, usa"
"Department of Public Health","Guilford","Adopt a Mom",NA,"8:00am - 5:00pm","8:00am - 5:00pm","8:00am - 5:00pm","8:00am - 5:00pm","8:00am - 5:00pm","Closed","Closed","1203 Maple St.",NA,"Greensboro",27405,"https://www.guilfordcountync.gov/our-county/human-services/health-department/health-and-wellness/coalition-on-infant-mortality-and-the-adopt-a-mom-program","336-641-6775","The Adopt-A-Mom Program is sponsored by the Coalition on Infant Mortality and coordinates prenatal care for low to medium-risk pregnant women who are not eligible for Medicaid, do not have private insurance to cover the cost of care, and cannot afford to pay out of pocket for care.","Taking intakes by phone and forgoing $100 fee during this time frame, as well as signatures on documents",NA,"1203 Maple St. Greensboro, NC",-79.9985418,35.9546024,"505 e green dr, high point, nc 27260, usa"
"Department of Public Health","Guilford","Care Coordination for Children (CC4C)",NA,"8:00am - 5:00pm","8:00am - 5:00pm","8:00am - 5:00pm","8:00am - 5:00pm","8:00am - 5:00pm","Closed","Closed","1203 Maple. St.",NA,"Greensboro",27405,"https://www.guilfordcountync.gov/our-county/human-services/health-department/child-health-services/care-coordination-for-children-cc4c","336-641-7641","The Care Coordination for Children (CC4C) Program is a free case management service for eligible children from birth up to five years of age. We serve children born at risk for developmental delays, children who have difficulty learning to speak or doing other things that a typical toddler or preschooler can and children whose parents have a concern that “something isn’t right”.",NA,NA,"1203 Maple. St. Greensboro, NC",-79.9985418,35.9546024,"505 e green dr, high point, nc 27260, usa"
"Department of Public Health","Guilford","Children's Developmental Services Agencies (CDSAs)",NA,"8:00am - 5:00pm","8:00am - 5:00pm","8:00am - 5:00pm","8:00am - 5:00pm","8:00am - 5:00pm","Closed","Closed","122 N. Elm St.",NA,"Greensboro",27401,"https://beearly.nc.gov/index.php/contact/cdsa","336-334-5601","Local Children's Developmental Services Agencies (CDSAs) are available to help families, caregivers, and professionals serve children with special needs through our Infant Toddler Program.","As of March 18, 2020, the North Carolina Infant-Toddler Program (ITP) is suspending face-to-face services until March 30, 2020, unless extended beyond that date. The program will be providing alternate methods to ensure the best support for our families during this difficult time and ensure service continuity.",NA,"122 N. Elm St. Greensboro, NC",-79.9985418,35.9546024,"505 e green dr, high point, nc 27260, usa"
"Department of Public Health","Guilford","Case Management for High Risk Pregnancy (CMHRP) formerly OBCM",NA,"8:00am - 5:00pm","8:00am - 5:00pm","8:00am - 5:00pm","8:00am - 5:00pm","8:00am - 5:00pm","Closed","Closed","1100 E. Wendover Ave.",NA,"Greensboro",27405,"https://www.guilfordcountync.gov/our-county/human-services/health-department/home-visiting-services","336-641-3700","The Pregnancy Care Management Program is a free care management service available to pregnant women enrolled in North Carolina Medicaid and to a limited number of low income, uninsured pregnant women.","CMHRP CM’s will not be providing face to face visits with patients at several OB practice upon providers request in light of COVID-19",NA,"1100 E. Wendover Ave. Greensboro, NC",-79.9985418,35.9546024,"505 e green dr, high point, nc 27260, usa"
"Department of Public Health","Guilford","Family Connects",NA,"8:00am - 5:00pm","8:00am - 5:00pm","8:00am - 5:00pm","8:00am - 5:00pm","8:00am - 5:00pm","Closed","Closed","1203 Maple St.",NA,"Greensboro",27405,"https://www.guilfordcountync.gov/our-county/human-services/health-department/home-visiting-services","336-641-3085","Guilford Family Connects offers nurse home visits to all deliveries throughout Guilford County. Nurse home visits provide support, education, and early identification and referral of health & safety concerns.",NA,NA,"1203 Maple St. Greensboro, NC",-79.9985418,35.9546024,"505 e green dr, high point, nc 27260, usa"
"Guilford Child Development","Guilford","Nurse Family Partnership",NA,"8:00am - 5:00pm","8:00am - 5:00pm","8:00am - 5:00pm","8:00am - 5:00pm","8:00am - 5:00pm","Closed","Closed","1200 Arlington St.",NA,"Greensboro",27406,"https://guilfordchilddev.org/parents/baby/","336-369-5080","Nurse Family Partnership works by having specially trained nurses regularly visit young, first-time moms-to-be, starting early in the pregnancy, and continuing through the child's second birthday","NFP is not physically seeing clients. They are using telehealth to connect with clients.",NA,"1200 Arlington St. Greensboro, NC",-79.9985418,35.9546024,"505 e green dr, high point, nc 27260, usa"
"YWCA HP","Guilford","Baby Basics Program",NA,"8:00am - 5:00pm","8:00am - 5:00pm","8:00am - 5:00pm","8:00am - 5:00pm","8:00am - 5:00pm","Closed","Closed","155 W Westwood Ave",NA,"High Point",27262,"https://ywcahp.com/","336-882-4126","Baby Basics offers families with young children assistance with basic needs including clothing, diapers, baby food, empowerment exercises, and car seats.","YWCA HP is closed. Baby Basics closet will offer a drive-through on Friday, March 27th from 9am-11am only.",NA,"155 W Westwood Ave High Point, NC",-79.9985418,35.9546024,"505 e green dr, high point, nc 27260, usa"
"Department of Public Health","Guilford","WIC",NA,"8pm-11am & 1pm-4pm","8pm-11am & 1pm-4pm","8pm-11am & 1pm-4pm","8pm-11am & 1pm-4pm","8pm-11am & 1pm-4pm","Closed","Closed","1100 E. Wendover Avenue",NA,"Greensboro",27405,"https://www.guilfordcountync.gov/our-county/human-services/health-department/child-health-services/how-wic-works","336-641-3214","The Special Supplemental Nutrition Program for Women, Infants, and Children (WIC) provides federal grants to states for supplemental foods, health care referrals, and nutrition education for low-income pregnant, breastfeeding, and non-breastfeeding postpartum women, and to infants and children up to age five who are found to be at nutritional risk.","The Greensboro office is open until 7:00 p.m. on the first and third Tuesday of every month. The Greensboro office reserves the last Tuesday morning of each month for staff meetings. The office is closed between 8:00 and 11:00 a.m. on those days.",NA,"1100 E. Wendover Avenue Greensboro, NC",-79.9985418,35.9546024,"505 e green dr, high point, nc 27260, usa"
"Department of Public Health","Guilford","WIC",NA,"8pm-11am & 1pm-4pm","8pm-11am & 1pm-4pm","8pm-11am & 1pm-4pm","8pm-11am & 1pm-4pm","8pm-11am & 1pm-4pm","Closed","Closed","501 E. Green Drive",NA,"High Point",27260,"https://www.guilfordcountync.gov/our-county/human-services/health-department/child-health-services/how-wic-works","336-641-7571","The Special Supplemental Nutrition Program for Women, Infants, and Children (WIC) provides federal grants to states for supplemental foods, health care referrals, and nutrition education for low-income pregnant, breastfeeding, and non-breastfeeding postpartum women, and to infants and children up to age five who are found to be at nutritional risk.","The High Point office is open until 7:00 p.m. on the second Tuesday of every month. The High Point office reserves the 3rd Tuesday morning of each month for staff meetings. The office is closed between 8:00 and 11:00 am on those days.",NA,"501 E. Green Drive High Point, NC",-79.9985418,35.9546024,"505 e green dr, high point, nc 27260, usa"
"Greensboro Transit Agency","Guilford","Greensboro Transit Agency",NA,"8:00am - 5:00pm","8:00am - 5:00pm","8:00am - 5:00pm","8:00am - 5:00pm","8:00am - 5:00pm","Closed","Closed","300 West Washington Street",NA,"Greensboro",27401,"https://www.greensboro-nc.gov/departments/transportation/gdot-divisions/greensboro-transit-agency-public-transportation-division","336-373-2489","GTA provids quality public transportation services to Greensboro residents and visitors","Until further notice, GTA will operate hourly service along normal routes. This will allow time for cleaning and sanitizing of buses throughout the day.",NA,"300 West Washington Street Greensboro, NC",-79.9985418,35.9546024,"505 e green dr, high point, nc 27260, usa"
"Parents as Teachers","Guilford","Parents as Teachers",NA,"8:30am - 5:00pm","8:30am - 5:00pm","8:30am - 5:00pm","8:30am - 5:00pm","8:30am - 5:00pm","Closed","Closed","415 N. Edgeworth Suite 206",NA,"Greensboro",27455,"https://patgc.org/","336-691-0024","Parents as Teachers Guilford County was built on the principle that parents are their child’s first and best teachers. All parents, regardless of personal circumstances, can be empowered to gain control over difficult life events and can interact with their children in a way that facilitates healthy development. Through the combined use of personal visits, group connections, developmental screenings and our resource network, our Parent Educators partner with more than 70 families a year to help build their capacity to support their child’s development.","PATGC has suspended any home visits until Monday, March 30th. At that time we plan to continue services thru virtual platforms or by phone, whatever is best for each individual family. We will not be doing any on-ground group connections but will be looking at was to help families connect virtually. We will still be doing screenings, virtually and connecting families with needed resources as they share their needs.",NA,"415 N. Edgeworth Suite 206 Greensboro, NC",-79.9985418,35.9546024,"505 e green dr, high point, nc 27260, usa"
"YWCA GSO","Guilford","Teen Parent Mentor Program",NA,"8:00am - 5:00pm","8:00am - 5:00pm","8:00am - 5:00pm","8:00am - 5:00pm","8:00am - 5:00pm","Closed","Closed","1807 East Wendover Ave.",NA,"Greensboro",27405,"https://ywcagsonc.org/","336.273.3461 ext. 210","The YWCA Teen Parent Mentor Program (TPMP) helps teen mothers succeed in school, postpone subsequent births to beyond adolescence, and deliver and raise healthy, school-ready children.","All TPMP group programs are cancelled until further notice. Staff are maintaining contact with participants via calls, Facetime, Facebook Messenger, Zoom meetings.",NA,"1807 East Wendover Ave. Greensboro, NC",-79.9985418,35.9546024,"505 e green dr, high point, nc 27260, usa"
"Salvation Army","Guilford","Center of Hope Crisis Assistance",NA,"9:00am- 5:00pm","9:00am- 5:00pm","9:00am- 5:00pm","9:00am- 5:00pm","9:00am- 5:00pm","Closed","Closed","1311 S. Eugene Street",NA,"Greensboro",27406,"https://www.salvationarmycarolinas.org/greensboro/center-of-hope/","(336)235-0348","When men, women and children have nowhere else to go, they can count on The Salvation Army Center of Hope. Each program is graduated to step clients from the point of crisis to the point of resolution. These programs include emergency shelter, rapid rehousing, and supportive services for veterans.","Due to COVID-19- not accepting new applications for shelter until April 1st. Shelter Applications: Monday, Wednesday, and Friday 9:00am-1:00pm. Shelter Admittance: Tuesday and Thursday",NA,"1311 S. Eugene Street Greensboro, NC",-79.9985418,35.9546024,"505 e green dr, high point, nc 27260, usa"
"Reading Connections","Guilford","Reading Connections",NA,"8:30am-5:00pm","8:30am-5:00pm","8:30am-5:00pm","8:30am-5:00pm","8:30am-5:00pm","Closed","Closed","122 North Elm Street, Suite 920",NA,"Greensboro",27401,"https://readingconnections.org/","(336) 230-2223","RC is a nonprofit agency that provides innovative programs designed to improve literacy, language skills, educational equity, and self-esteem for adults in Guilford County, N.C.","COVID-19 update: classes cancelled until may; classes for ESOL, career coaching, computer literacy, high school equivalency, detention center literacy, adult education, and family literacy",NA,"122 North Elm Street, Suite 920 Greensboro, NC",-79.9985418,35.9546024,"505 e green dr, high point, nc 27260, usa"
"Reading Connections","Guilford","Reading Connections",NA,"9:00am-5:00pm","9:00am-5:00pm","9:00am-5:00pm","9:00am-5:00pm","9:00am-5:00pm","Closed","Closed","901 N. Main Street",NA,"High Point",27262,"https://readingconnections.org/","(336) 884-7323","RC is a nonprofit agency that provides innovative programs designed to improve literacy, language skills, educational equity, and self-esteem for adults in Guilford County, N.C.","COVID-19 update: classes cancelled until may; classes for ESOL, career coaching, computer literacy, high school equivalency, detention center literacy, adult education, and family literacy",NA,"901 N. Main Street High Point, NC",-79.9985418,35.9546024,"505 e green dr, high point, nc 27260, usa"
"Greensboro Parks & Recreation","Guilford","Greensboro Parks & Recreation",NA,"10:00am-3:00pm","10:00am-3:00pm","10:00am-3:00pm","10:00am-3:00pm","10:00am-3:00pm","Closed","Closed","1001 Fourth St.",NA,"Greensboro",27405,"https://www.greensboro-nc.gov/departments/parks-recreation","336-373-2558","The Greensboro Parks and Recreation Department exists to provide professional and diverse leisure opportunities through inclusive programs, facilities, parks, and open space, ensuring that Greensboro is a desirable place to work, live, and play.","COVID-19 update: Online programs will be live streamed on facebook as all programs on site have been cancelled or postponed. From March 16-27, all manned Parks and Recreation facilities, such as recreation centers, regional parks, and lakes, will be open limited hours of 10 am to 3 pm. Those facilities will be closed Sunday, March 22. All trails, greenways, and neighborhood parks will continue to be open dawn until dusk.",NA,"1001 Fourth St. Greensboro, NC",-79.9985418,35.9546024,"505 e green dr, high point, nc 27260, usa"
"Guilford County Partnership for Children","Guilford","NC Pre-K",NA,"8:30am -4:30pm","8:30am -4:30pm","8:30am -4:30pm","8:30am -4:30pm","8:30am -4:30pm","Closed","Closed","500 W. Friendly Ave. Suite 100",NA,"Greensboro",27401,"https://www.guilfordchildren.org/families/nc-pre-k-4-yr-olds/","336-274-5437","The program is free to participants with the goal of helping young children (whose families financially qualify) prepare for kindergarten. NC Pre-K sites include public elementary schools, Head Start Centers and private childcare centers throughout Guilford County.","COVID-19: Beginning Monday, March 16, the Partnership office will be closed to the public. We will continue to accept 2020-2021 NC Pre-K applications by Drop-Off Only. We now have a drop box inside our office.  
You may drop off your NC Pre-K application, Monday to Friday.  When you enter our front door, just walk straight, and you will see the drop box in the door.  Please staple or paperclip your application and documents together.
",NA,"500 W. Friendly Ave. Suite 100 Greensboro, NC",-79.9985418,35.9546024,"505 e green dr, high point, nc 27260, usa"
"Guilford County Child Development","Guilford","Head Start/Early Head Start",NA,"Closed","Closed","Closed","Closed","Closed","Closed","Closed","1200 Arlington Street",NA,"Greensboro",27406,"https://guilfordchilddev.org/","(336) 369-5097","a federally funded holistic child development program that promotes healthy prenatal care for pregnant women, enhances the development of very young children (ages 0 to 5), and promotes healthy family effectiveness.","COVID-19: Classes are cancelled and main offices are closed. Pick-up and Go/Bus Meal Delivery has begun for GCD families. Find the Pick-up and Go schedule on the website.",NA,"1200 Arlington Street Greensboro, NC",-79.9985418,35.9546024,"505 e green dr, high point, nc 27260, usa"
"Center for New North Carolinians","Guilford","Thriving at Three",NA,"Closed","Closed","Closed","Closed","Closed","Closed","Closed","915 W. Gate City Blvd., Suite A",NA,"Greensboro",27403,"https://cnnc.uncg.edu/thriving-at-three/","336.256.1066","The purpose of Thriving at Three is to assure that Latino immigrant children in Greensboro have a positive and strong foundation from birth to three. The CNNC accomplishes this goal by delivering long-term at-home services to at-risk families until the child’s third year – partnering with the parents to provide direct intervention, parenting education, group meetings, case management, referrals, and care coordination for up to the child’s third year.","Office is closed to the public. We are providing support over the phone, zoom or FaceTime.Offices will be closed starting 3/19/2020. Staff will be working remote.",NA,"915 W. Gate City Blvd., Suite A Greensboro, NC",-79.9985418,35.9546024,"505 e green dr, high point, nc 27260, usa"
"Center for New North Carolinians","Guilford","Immigrant Health ACCESS Project",NA,"Closed","Closed","Closed","Closed","Closed","Closed","Closed","915 W. Gate City Blvd., Suite A",NA,"Greensboro",27403,"https://cnnc.uncg.edu/immigrant-health-access-project/","336-334-9889","The Immigrant Health Access Project (IHAP) utilizes the community health worker model to reduce these barriers and promote access to care for uninsured immigrant and refugee adults in Greater Greensboro.","Office is closed to the public. We are providing support over the phone, zoom or FaceTime.Offices will be closed starting 3/19/2020. Staff will be working remote.",NA,"915 W. Gate City Blvd., Suite A Greensboro, NC",-79.9985418,35.9546024,"505 e green dr, high point, nc 27260, usa"
"Center for New North Carolinians","Guilford","Greensboro Refugee Employment Advancement Team",NA,"Closed","Closed","Closed","Closed","Closed","Closed","Closed","915 W. Gate City Blvd., Suite A",NA,"Greensboro",27403,"https://cnnc.uncg.edu/great/","336-334-5466","The Greensboro Refugee Employment Advancement Team – GREAT – is a collaborative effort of local refugee-serving agencies. Church World Service Greensboro (CWS), New Arrivals Institute (NAI), Montagnard Dega Association (MDA), and CNNC work together to support low-income refugees and immigrants in finding and retaining stable, family-sustaining employment.","Office is closed to the public. We are providing support over the phone, zoom or FaceTime.Offices will be closed starting 3/19/2020. Staff will be working remote.",NA,"915 W. Gate City Blvd., Suite A Greensboro, NC",-79.9985418,35.9546024,"505 e green dr, high point, nc 27260, usa"
"Center for New North Carolinians","Guilford","Family Violence Prevention Services",NA,"Closed","Closed","Closed","Closed","Closed","Closed","Closed","915 W. Gate City Blvd., Suite A",NA,"Greensboro",27403,"https://cnnc.uncg.edu/family-violence-prevention-services-program/","336.334.5411","CNNC’s Family Violence Prevention Services Program aims to address violence among refugee families of Greensboro through community collaboration, education, and capacity-building. Resettled refugees women are vulnerable to family violence, as many continue to endure trauma yet remain unaware of their legal rights and protections within the United States.","Office is closed to the public. We are providing support over the phone, zoom or FaceTime.Offices will be closed starting 3/19/2020. Staff will be working remote.",NA,"915 W. Gate City Blvd., Suite A Greensboro, NC",-79.9985418,35.9546024,"505 e green dr, high point, nc 27260, usa"
"Center for New North Carolinians","Guilford","Immigration Services",NA,"Closed","Closed","Closed","Closed","Closed","Closed","Closed","915 W. Gate City Blvd., Suite A",NA,"Greensboro",27403,"https://cnnc.uncg.edu/immigration-services/","336-256-1062","Recognizing the contributions of immigrants and the value of reuniting families, the mission of the CNNC Immigration Services Program is to give affordable access to those who are eligible to immigrate and/or become U.S Citizens and need immigration counseling.","Office is closed to the public. We are providing support over the phone, zoom or FaceTime.Offices will be closed starting 3/19/2020. Staff will be working remote.",NA,"915 W. Gate City Blvd., Suite A Greensboro, NC",-79.9985418,35.9546024,"505 e green dr, high point, nc 27260, usa"
"Women's Resource Center of Greensboro","Guilford","Women's Resource Center of Greensboro",NA,"9:00am-5:00pm","9:00am-7:00pm","9:00am-5:00pm","9:00am-7:00pm","Closed","Closed","Closed","628 Summit Avenue",NA,"Greensboro",27405,"https://www.womenscentergso.org/",NA,"The mission of the WRC is to promote the self-reliance of women by assessing needs, providing services and acting as a gateway to community resources. WRC provides help with empowerment through workshops and access to legal resources, job strategies, and  community resource counseling.","Beginning Wednesday March 25th the WRC will be closed to the public. We will continue to offer Resource & Referral Services and Attorney Hotline Appointments via email at info@womenscentergso.org. For Job Search Assistance you can contact Heather Schneck at Heather@womenscentergso.org.The WRC Staff is working with limited access to phones and emailsand will get back with you as soon as possible.",NA,"628 Summit Avenue Greensboro, NC",-79.9985418,35.9546024,"505 e green dr, high point, nc 27260, usa"
"High Point Medical Center- Esther R. Culp Women's Center","Guilford","Mommy and Me Classes",NA,"Closed","Closed","11:00 AM","Closed","Closed","Closed","Closed","601 N Elm St",NA,"High Point",27262,"https://www.wakehealth.edu/Locations/Clinics/e/Esther-R-Culp-Womens-Center","336-878-6888","Mommy and Me Classes are free for moms and their babies, ages 0-8 months old. The classes are presented by nurses, lactation consultants and guest speakers. These relaxed and informal sessions provide opportunities for learning and support. Our goal is to strengthen the parent-infant bond and promote development of strong parenting skills. And, it's a great way to meet other moms and their babies that are experiencing some of the same challenges and rewards as you.","Classes cancelled until further notice",NA,"601 N Elm St High Point, NC",-79.9985418,35.9546024,"505 e green dr, high point, nc 27260, usa"
"High Point Medical Center- Esther R. Culp Women's Center","Guilford","Expectant Parenting Classes",NA,"6:30pm-8:30pm","Closed","Closed","Closed","Closed","9:00am-5:00pm","Closed","601 N Elm St",NA,"High Point",27262,"https://www.wakehealth.edu/Locations/Clinics/e/Esther-R-Culp-Womens-Center","336-878-6888","Every Monday in February, April, June, August and October 6:30pm-8:30pm OR Every Saturday in January, March, May, July, September and November  9am to 5 pm. $20 fee. Attend the entire series or your choice of any class:
Labor, Birth and Pain Control
Cesarean Birth and Postpartum
Infant Feeding – Breastfeeding
Newborn Care","Classes cancelled until further notice",NA,"601 N Elm St High Point, NC",-79.9985418,35.9546024,"505 e green dr, high point, nc 27260, usa"
"High Point Medical Center- Esther R. Culp Women's Center","Guilford","Pregnancy/Postpartum Support Group",NA,"Closed","6:30PM-8:00pm","12:00 PM","Closed","Closed","Closed","Closed","601 N Elm St",NA,"High Point",27262,"https://www.wakehealth.edu/Locations/Clinics/e/Esther-R-Culp-Womens-Center","336-609-7383","Hope-Filled Hearts is a support group that aims to offer hope and support to women who are having a hard time with adjustments related to pregnancy and the postpartum period. Meetings will include opportunities for open discussion as well as education on topics related to motherhood. The group is facilitated by licensed professional counselor. Group meets the 1st Wednesday of each month at noon and the third Tuesday at 6:30.","Classes cancelled until further notice",NA,"601 N Elm St High Point, NC",-79.9985418,35.9546024,"505 e green dr, high point, nc 27260, usa"
"UNCG","Guilford","Bringing Out the Best",NA,"8:00am - 5:00pm","8:00am - 5:00pm","8:00am - 5:00pm","8:00am - 5:00pm","8:00am - 5:00pm","Closed","Closed","923-A West Gate City Blvd.",NA,"Greensboro",27402,"https://bringingoutthebest.uncg.edu/","(336) 334-3120","Bringing Out the Best is an early intervention program that provides family-centered, community-based services targeting children ages birth to five with social and emotional challenges. Our goal is to increase the number of children in Guilford County that are healthy and ready to succeed as they enter school.","Offices are closed. Staff is working remote. Anyone can call who has children age 0-5 to receive a consultation. Use the following link to request a consultation: https://uncg.qualtrics.com/jfe/form/SV_bJdkZ3E6vKMv8fr",NA,"923-A West Gate City Blvd. Greensboro, NC",-79.9985418,35.9546024,"505 e green dr, high point, nc 27260, usa"
